start=new Date('2022-03-14T00:00:00.000Z').valueOf();
sats=[{"NORAD_CAT_ID":"47815","DECAY_DATE":null,"MEAN_MOTION_DDOT":"0.0000000000000","INCLINATION":"53.0547","COUNTRY_CODE":"US","OBJECT_ID":"2021-018AE","OBJECT_TYPE":"PAYLOAD","RCS_SIZE":"LARGE","GP_ID":"198687576","SEMIMAJOR_AXIS":"6925.389","REV_AT_EPOCH":"5709","TLE_LINE1":"1 47815U 21018AE  22072.93879704 -.00003621  00000-0 -22438-3 0  9993","MEAN_ELEMENT_THEORY":"SGP4","CENTER_NAME":"EARTH","APOAPSIS":"548.465","BSTAR":"-0.00022438000000","REF_FRAME":"TEME","PERIOD":"95.593","MEAN_ANOMALY":"306.4033","OBJECT_NAME":"STARLINK-2396","MEAN_MOTION_DOT":"-0.00003621","CLASSIFICATION_TYPE":"U","EPHEMERIS_TYPE":"0","ECCENTRICITY":"0.00017490","RA_OF_ASC_NODE":"306.2298","PERIAPSIS":"546.042","ARG_OF_PERICENTER":"53.7117","SITE":"AFETR","TLE_LINE2":"2 47815  53.0547 306.2298 0001749  53.7117 306.4033 15.06386926 57092","LAUNCH_DATE":"2021-03-11","ELEMENT_SET_NO":"999","EPOCH":"2022-03-13T22:31:52.064256","FILE":"3358388","MEAN_MOTION":"15.06386926","TIME_SYSTEM":"UTC"},{"OBJECT_ID":"2021-018AF","OBJECT_TYPE":"PAYLOAD","RCS_SIZE":"LARGE","MEAN_MOTION_DDOT":"0.0000000000000","DECAY_DATE":null,"NORAD_CAT_ID":"47816","COUNTRY_CODE":"US","INCLINATION":"53.0540","APOAPSIS":"548.314","MEAN_ELEMENT_THEORY":"SGP4","CENTER_NAME":"EARTH","PERIOD":"95.592","MEAN_ANOMALY":"303.2907","REF_FRAME":"TEME","BSTAR":"-0.00011351000000","REV_AT_EPOCH":"5702","TLE_LINE1":"1 47816U 21018AF  22072.94755215 -.00001972  00000-0 -11351-3 0  9994","GP_ID":"198688325","SEMIMAJOR_AXIS":"6925.347","EPHEMERIS_TYPE":"0","ECCENTRICITY":"0.00015920","MEAN_MOTION_DOT":"-0.00001972","OBJECT_NAME":"STARLINK-2399","CLASSIFICATION_TYPE":"U","EPOCH":"2022-03-13T22:44:28.505760","FILE":"3358388","ELEMENT_SET_NO":"999","TIME_SYSTEM":"UTC","MEAN_MOTION":"15.06400515","ARG_OF_PERICENTER":"56.8234","RA_OF_ASC_NODE":"311.1968","PERIAPSIS":"546.109","LAUNCH_DATE":"2021-03-11","TLE_LINE2":"2 47816  53.0540 311.1968 0001592  56.8234 303.2907 15.06400515 57024","SITE":"AFETR"},{"RCS_SIZE":"LARGE","OBJECT_TYPE":"PAYLOAD","OBJECT_ID":"2021-018AG","INCLINATION":"53.0571","COUNTRY_CODE":"US","NORAD_CAT_ID":"47817","DECAY_DATE":null,"MEAN_MOTION_DDOT":"0.0000000000000","BSTAR":"0.00094105000000","REF_FRAME":"TEME","PERIOD":"95.593","MEAN_ANOMALY":"291.4778","MEAN_ELEMENT_THEORY":"SGP4","CENTER_NAME":"EARTH","APOAPSIS":"548.382","GP_ID":"198689072","SEMIMAJOR_AXIS":"6925.369","REV_AT_EPOCH":"5701","TLE_LINE1":"1 47817U 21018AG  22072.89963232  .00013761  00000-0  94105-3 0  9994","ECCENTRICITY":"0.00016580","EPHEMERIS_TYPE":"0","CLASSIFICATION_TYPE":"U","OBJECT_NAME":"STARLINK-2400","MEAN_MOTION_DOT":"0.00013761","MEAN_MOTION":"15.06393265","TIME_SYSTEM":"UTC","ELEMENT_SET_NO":"999","FILE":"3358388","EPOCH":"2022-03-13T21:35:28.232448","SITE":"AFETR","TLE_LINE2":"2 47817  53.0571 311.4045 0001658  68.6388 291.4778 15.06393265 57018","LAUNCH_DATE":"2021-03-11","PERIAPSIS":"546.086","RA_OF_ASC_NODE":"311.4045","ARG_OF_PERICENTER":"68.6388"},{"NORAD_CAT_ID":"47818","DECAY_DATE":null,"MEAN_MOTION_DDOT":"0.0000000000000","INCLINATION":"53.0541","COUNTRY_CODE":"US","OBJECT_ID":"2021-018AH","OBJECT_TYPE":"PAYLOAD","RCS_SIZE":"LARGE","GP_ID":"198688819","SEMIMAJOR_AXIS":"6925.378","REV_AT_EPOCH":"5695","TLE_LINE1":"1 47818U 21018AH  22072.92681554 -.00001192  00000-0 -61180-4 0  9998","CENTER_NAME":"EARTH","MEAN_ELEMENT_THEORY":"SGP4","APOAPSIS":"548.369","BSTAR":"-0.00006118000000","REF_FRAME":"TEME","PERIOD":"95.593","MEAN_ANOMALY":"294.1210","OBJECT_NAME":"STARLINK-2401","MEAN_MOTION_DOT":"-0.00001192","CLASSIFICATION_TYPE":"U","EPHEMERIS_TYPE":"0","ECCENTRICITY":"0.00016270","PERIAPSIS":"546.116","RA_OF_ASC_NODE":"316.2901","ARG_OF_PERICENTER":"65.9950","SITE":"AFETR","TLE_LINE2":"2 47818  53.0541 316.2901 0001627  65.9950 294.1210 15.06390543 56950","LAUNCH_DATE":"2021-03-11","ELEMENT_SET_NO":"999","EPOCH":"2022-03-13T22:14:36.862656","FILE":"3358388","MEAN_MOTION":"15.06390543","TIME_SYSTEM":"UTC"},{"OBJECT_ID":"2021-018AJ","RCS_SIZE":"LARGE","OBJECT_TYPE":"PAYLOAD","NORAD_CAT_ID":"47819","DECAY_DATE":null,"MEAN_MOTION_DDOT":"0.0000000000000","COUNTRY_CODE":"US","INCLINATION":"53.0541","APOAPSIS":"548.476","MEAN_ELEMENT_THEORY":"SGP4","CENTER_NAME":"EARTH","BSTAR":"-0.00001610800000","MEAN_ANOMALY":"305.4209","PERIOD":"95.592","REF_FRAME":"TEME","SEMIMAJOR_AXIS":"6925.336","GP_ID":"198688077","REV_AT_EPOCH":"5708","TLE_LINE1":"1 47819U 21018AJ  22072.90331571 -.00000522  00000-0 -16108-4 0  9994","EPHEMERIS_TYPE":"0","ECCENTRICITY":"0.00018400","OBJECT_NAME":"STARLINK-2402","MEAN_MOTION_DOT":"-0.00000522","CLASSIFICATION_TYPE":"U","EPOCH":"2022-03-13T21:40:46.477344","FILE":"3358388","ELEMENT_SET_NO":"999","MEAN_MOTION":"15.06403952","TIME_SYSTEM":"UTC","ARG_OF_PERICENTER":"54.6952","RA_OF_ASC_NODE":"311.3929","PERIAPSIS":"545.927","TLE_LINE2":"2 47819  53.0541 311.3929 0001840  54.6952 305.4209 15.06403952 57089","SITE":"AFETR","LAUNCH_DATE":"2021-03-11"},{"SITE":"AFETR","TLE_LINE2":"2 47820  53.0548 321.1889 0001596  61.2681 298.8468 15.06391761 56943","LAUNCH_DATE":"2021-03-11","RA_OF_ASC_NODE":"321.1889","PERIAPSIS":"546.134","ARG_OF_PERICENTER":"61.2681","MEAN_MOTION":"15.06391761","TIME_SYSTEM":"UTC","ELEMENT_SET_NO":"999","FILE":"3358388","EPOCH":"2022-03-13T22:48:27.091584","CLASSIFICATION_TYPE":"U","OBJECT_NAME":"STARLINK-2403","MEAN_MOTION_DOT":"-0.00000435","ECCENTRICITY":"0.00015960","EPHEMERIS_TYPE":"0","SEMIMAJOR_AXIS":"6925.374","GP_ID":"198687825","TLE_LINE1":"1 47820U 21018AK  22072.95031356 -.00000435  00000-0 -10336-4 0  9999","REV_AT_EPOCH":"5694","BSTAR":"-0.00001033600000","REF_FRAME":"TEME","PERIOD":"95.593","MEAN_ANOMALY":"298.8468","MEAN_ELEMENT_THEORY":"SGP4","CENTER_NAME":"EARTH","APOAPSIS":"548.344","INCLINATION":"53.0548","COUNTRY_CODE":"US","NORAD_CAT_ID":"47820","MEAN_MOTION_DDOT":"0.0000000000000","DECAY_DATE":null,"OBJECT_TYPE":"PAYLOAD","RCS_SIZE":"LARGE","OBJECT_ID":"2021-018AK"},{"REV_AT_EPOCH":"5702","TLE_LINE1":"1 47821U 21018AL  22072.92817771  .00004618  00000-0  32876-3 0  9997","GP_ID":"198688572","SEMIMAJOR_AXIS":"6925.375","PERIOD":"95.593","MEAN_ANOMALY":"286.4902","REF_FRAME":"TEME","BSTAR":"0.00032876000000","APOAPSIS":"548.421","CENTER_NAME":"EARTH","MEAN_ELEMENT_THEORY":"SGP4","COUNTRY_CODE":"US","INCLINATION":"53.0544","DECAY_DATE":null,"MEAN_MOTION_DDOT":"0.0000000000000","NORAD_CAT_ID":"47821","RCS_SIZE":"LARGE","OBJECT_TYPE":"PAYLOAD","OBJECT_ID":"2021-018AL","LAUNCH_DATE":"2021-03-11","TLE_LINE2":"2 47821  53.0544 311.2823 0001705  73.6274 286.4902 15.06391276 57022","SITE":"AFETR","ARG_OF_PERICENTER":"73.6274","PERIAPSIS":"546.060","RA_OF_ASC_NODE":"311.2823","TIME_SYSTEM":"UTC","MEAN_MOTION":"15.06391276","FILE":"3358388","EPOCH":"2022-03-13T22:16:34.554144","ELEMENT_SET_NO":"999","CLASSIFICATION_TYPE":"U","MEAN_MOTION_DOT":"0.00004618","OBJECT_NAME":"STARLINK-2406","ECCENTRICITY":"0.00017050","EPHEMERIS_TYPE":"0"},{"OBJECT_ID":"2021-018AM","RCS_SIZE":"LARGE","OBJECT_TYPE":"PAYLOAD","MEAN_MOTION_DDOT":"0.0000000000000","DECAY_DATE":null,"NORAD_CAT_ID":"47822","INCLINATION":"53.0567","COUNTRY_CODE":"US","MEAN_ELEMENT_THEORY":"SGP4","CENTER_NAME":"EARTH","APOAPSIS":"548.494","REF_FRAME":"TEME","MEAN_ANOMALY":"303.1505","PERIOD":"95.592","BSTAR":"-0.00019196000000","REV_AT_EPOCH":"5689","TLE_LINE1":"1 47822U 21018AM  22072.93926005 -.00003139  00000-0 -19196-3 0  9999","SEMIMAJOR_AXIS":"6925.359","GP_ID":"198689320","EPHEMERIS_TYPE":"0","ECCENTRICITY":"0.00018340","MEAN_MOTION_DOT":"-0.00003139","OBJECT_NAME":"STARLINK-2407","CLASSIFICATION_TYPE":"U","ELEMENT_SET_NO":"999","EPOCH":"2022-03-13T22:32:32.068320","FILE":"3358388","TIME_SYSTEM":"UTC","MEAN_MOTION":"15.06396493","PERIAPSIS":"545.954","RA_OF_ASC_NODE":"321.2310","ARG_OF_PERICENTER":"56.9660","LAUNCH_DATE":"2021-03-11","SITE":"AFETR","TLE_LINE2":"2 47822  53.0567 321.2310 0001834  56.9660 303.1505 15.06396493 56892"},{"CLASSIFICATION_TYPE":"U","OBJECT_NAME":"STARLINK-2408","MEAN_MOTION_DOT":"-0.00005431","ECCENTRICITY":"0.00016340","EPHEMERIS_TYPE":"0","TLE_LINE2":"2 47823  53.0545 311.1661 0001634  62.6321 297.4834 15.06388542 57035","SITE":"AFETR","LAUNCH_DATE":"2021-03-11","ARG_OF_PERICENTER":"62.6321","PERIAPSIS":"546.117","RA_OF_ASC_NODE":"311.1661","MEAN_MOTION":"15.06388542","TIME_SYSTEM":"UTC","EPOCH":"2022-03-13T22:55:04.894464","FILE":"3358388","ELEMENT_SET_NO":"999","COUNTRY_CODE":"US","INCLINATION":"53.0545","NORAD_CAT_ID":"47823","MEAN_MOTION_DDOT":"0.0000000000000","DECAY_DATE":null,"RCS_SIZE":"LARGE","OBJECT_TYPE":"PAYLOAD","OBJECT_ID":"2021-018AN","GP_ID":"198687577","SEMIMAJOR_AXIS":"6925.384","TLE_LINE1":"1 47823U 21018AN  22072.95491776 -.00005431  00000-0 -34606-3 0  9994","REV_AT_EPOCH":"5703","BSTAR":"-0.00034606000000","MEAN_ANOMALY":"297.4834","PERIOD":"95.593","REF_FRAME":"TEME","APOAPSIS":"548.380","CENTER_NAME":"EARTH","MEAN_ELEMENT_THEORY":"SGP4"},{"ECCENTRICITY":"0.00015490","EPHEMERIS_TYPE":"0","CLASSIFICATION_TYPE":"U","MEAN_MOTION_DOT":"-0.00006652","OBJECT_NAME":"STARLINK-2409","TIME_SYSTEM":"UTC","MEAN_MOTION":"15.06377900","ELEMENT_SET_NO":"999","EPOCH":"2022-03-13T22:39:10.304928","FILE":"3358388","LAUNCH_DATE":"2021-03-11","SITE":"AFETR","TLE_LINE2":"2 47824  53.0547 311.2108 0001549  61.2227 298.8918 15.06377900 57023","RA_OF_ASC_NODE":"311.2108","PERIAPSIS":"546.209","ARG_OF_PERICENTER":"61.2227","RCS_SIZE":"LARGE","OBJECT_TYPE":"PAYLOAD","OBJECT_ID":"2021-018AP","INCLINATION":"53.0547","COUNTRY_CODE":"US","MEAN_MOTION_DDOT":"0.0000000000000","DECAY_DATE":null,"NORAD_CAT_ID":"47824","REF_FRAME":"TEME","PERIOD":"95.594","MEAN_ANOMALY":"298.8918","BSTAR":"-0.00042837000000","CENTER_NAME":"EARTH","MEAN_ELEMENT_THEORY":"SGP4","APOAPSIS":"548.354","REV_AT_EPOCH":"5702","TLE_LINE1":"1 47824U 21018AP  22072.94386927 -.00006652  00000-0 -42837-3 0  9996","GP_ID":"198688326","SEMIMAJOR_AXIS":"6925.416"}];
